LEGION 1                
1 59625U 24081A   24148.89929362  .00006116  00000+0  31801-3 0  9998
2 59625  97.5759 219.9957 0004951  89.4584 270.7216 15.16423371  3809
